HULIANWANG DIGUI-121    
1 67061U 25295C   25357.42819951 -.00000239  00000+0 -33550-4 0  9999
2 67061  50.0019 327.1083 0013406 283.4183  76.5236 14.25038967  1649
HULIANWANG DIGUI-122    
1 67062U 25295D   25358.68840825  .00000017  00000+0  74037-4 0  9990
2 67062  50.0052 321.7830 0013164 295.5417  64.4135 14.25758016  1820
HULIANWANG DIGUI-123    
1 67063U 25295E   25357.77613648 -.00000005  00000+0  64662-4 0  9992
2 67063  50.0059 325.6275 0012473 291.5304  68.4280 14.25890271  1697
HULIANWANG DIGUI-124    
1 67064U 25295F   25356.23385528 -.00000684  00000+0 -21790-3 0  9994
2 67064  50.0035 332.1235 0012142 280.5756  79.3790 14.25948838  1479
HULIANWANG DIGUI-125    
1 67065U 25295G   25358.12599950 -.00000004  00000+0  65029-4 0  9990
2 67065  50.0009 324.1276 0012265 293.4537  66.5087 14.25956035  1748
HULIANWANG DIGUI-126    
1 67066U 25295H   25358.68535505  .00000034  00000+0  80653-4 0  9990
2 67066  50.0012 321.7514 0011421 292.7089  67.2617 14.26099416  1826
HULIANWANG DIGUI-127    
1 67067U 25295J   25356.65216912 -.00000825  00000+0 -27535-3 0  9993
2 67067  50.0053 330.3407 0010850 289.3117  70.6623 14.26251195  1535
CZ-12 R/B               
1 67068U 25295K   25360.35627889 -.00000038  00000+0  39475-4 0  9997
2 67068  49.9942 313.2422 0056901 184.7305 175.3084 14.41130432  2072
XIWANG-5 02             
1 67069U 25296A   25357.50051046  .00011945  00000+0  60249-3 0  9998
2 67069  41.3523  40.1941 0014556 102.8792 257.3656 15.16891516  1599
DEAR-5                  
1 67070U 25296B   25360.72586615  .00006345  00000+0  32483-3 0  9990
2 67070  41.3552  21.7885 0016586 127.8612 232.3712 15.16897231  2078
RAISE-4                 
1 67073U 25297B   25360.64113903  .00005910  00000+0  39551-3 0  9991
2 67073  97.4853 147.8154 0011677 268.6462  91.3428 15.07246496  1885
ELECTRON KICK STAGE R/B 
1 67074U 25297C   25360.30826821  .00363072  38168-4  18067-2 0  9990
2 67074  97.4814 148.4327 0187402 220.2735 138.4516 15.60623913  1893
